[{"OBJECT_NAME":"STARLINK-31128","OBJECT_ID":"2023-211C","EPOCH":"2026-03-09T02:07:42.880800","MEAN_MOTION":15.27568518,"ECCENTRICITY":6.767e-5,"INCLINATION":43.003,"RA_OF_ASC_NODE":88.5877,"ARG_OF_PERICENTER":265.1154,"MEAN_ANOMALY":94.9621,"EPHEMERIS_TYPE":0,"CLASSIFICATION_TYPE":"U","NORAD_CAT_ID":58669,"ELEMENT_SET_NO":999,"REV_AT_EPOCH":12237,"BSTAR":-5.9898983e-5,"MEAN_MOTION_DOT":-1.909e-5,"MEAN_MOTION_DDOT":0},{"OBJECT_NAME":"OBJECT P","OBJECT_ID":"2025-155P","EPOCH":"2026-03-09T22:15:55.475424","MEAN_MOTION":15.2544775,"ECCENTRICITY":0.00080527,"INCLINATION":97.4496,"RA_OF_ASC_NODE":37.0295,"ARG_OF_PERICENTER":153.0691,"MEAN_ANOMALY":207.0966,"EPHEMERIS_TYPE":0,"CLASSIFICATION_TYPE":"U","NORAD_CAT_ID":64889,"ELEMENT_SET_NO":999,"REV_AT_EPOCH":6557,"BSTAR":0.00031377111,"MEAN_MOTION_DOT":7.871e-5,"MEAN_MOTION_DDOT":0}]
